{"epoch":1784710044,"count":18256,"objects":[{"id":"60492","name":"FLOCK 4BE 17","type":"PAYLOAD","l1":"1 60492U 24149AA  26202.19804604  .00012669  00000-0  31223-3 0  9993","l2":"2 60492  97.3758 285.8565 0004662 131.6807 228.4839 15.40690773107494"},{"id":"60494","name":"FLOCK 4BE 22","type":"PAYLOAD","l1":"1 60494U 24149AC  26202.47302289  .00031185  00000-0  72588-3 0  9991","l2":"2 60494  97.3717 286.3814 0005007 138.1684 221.9946 15.42226262107580"},{"id":"60495","name":"FLOCK 4BE 34","type":"PAYLOAD","l1":"1 60495U 24149AD  26202.16640410  .00012370  00000-0  29134-3 0  9993","l2":"2 60495  97.3767 286.9148 0005276 145.4969 214.6621 15.42068261107567"},{"id":"60497","name":"FLOCK 4BE 32","type":"PAYLOAD","l1":"1 60497U 24149AF  26202.50024705  .00017729  00000-0  40050-3 0  9999","l2":"2 60497  97.3704 286.8239 0005346 141.8048 218.3579 15.43236366107620"},{"id":"60501","name":"FLOCK 4BE 11","type":"PAYLOAD","l1":"1 60501U 24149AK  26202.47704135  .00015503  00000-0  34140-3 0  9994","l2":"2 60501  97.3682 287.0627 0005366 141.1432 219.0203 15.44024709107648"},{"id":"60505","name":"FLOCK 4BE 24","type":"PAYLOAD","l1":"1 60505U 24149AP  26202.20059716  .00016256  00000-0  35509-3 0  9993","l2":"2 60505  97.3698 287.0547 0005484 152.8176 207.3360 15.44255936107614"},{"id":"60509","name":"FLOCK 4BE 29","type":"PAYLOAD","l1":"1 60509U 24149AT  26202.18586905  .00035460  00000-0  73108-3 0  9994","l2":"2 60509  97.3794 288.6041 0004124 162.0588 198.0808 15.45808063107665"},{"id":"60511","name":"FLOCK 4BE 2","type":"PAYLOAD","l1":"1 60511U 24149AV  26202.23767119  .00057696  00000-0  81280-3 0  9996","l2":"2 60511  97.3817 290.6003 0005451 157.2583 202.8914 15.56436152107794"},{"id":"60512","name":"FLOCK 4BE 13","type":"PAYLOAD","l1":"1 60512U 24149AW  26202.21747222  .00010838  00000-0  25004-3 0  9997","l2":"2 60512  97.3708 287.0020 0005457 138.5749 221.5913 15.42722739107617"},{"id":"60513","name":"FLOCK 4BE 27","type":"PAYLOAD","l1":"1 60513U 24149AX  26202.16368846  .00007203  00000-0  21458-3 0  9994","l2":"2 60513  97.3813 284.0426 0004547 163.0635 197.0761 15.34984568107358"},{"id":"60514","name":"FLOCK 4BE 9","type":"PAYLOAD","l1":"1 60514U 24149AY  26202.49919379  .00016855  00000-0  40017-3 0  9999","l2":"2 60514  97.3781 287.1257 0004136 155.3179 204.8267 15.41759367107601"},{"id":"60516","name":"FLOCK 4BE 6","type":"PAYLOAD","l1":"1 60516U 24149BA  26202.16627347  .00011929  00000-0  29671-3 0  9996","l2":"2 60516  97.3774 286.0820 0004720 155.7618 204.3852 15.40426856107507"},{"id":"60517","name":"FLOCK 4BE 14","type":"PAYLOAD","l1":"1 60517U 24149BB  26202.50657813  .00016668  00000-0  39259-3 0  9994","l2":"2 60517  97.3681 286.5949 0005837 157.7540 202.3961 15.41994135107610"},{"id":"60518","name":"FLOCK 4BE 1","type":"PAYLOAD","l1":"1 60518U 24149BC  26202.22686475  .00013878  00000-0  30980-3 0  9992","l2":"2 60518  97.3765 287.7136 0005482 158.2388 201.9094 15.43646626107621"},{"id":"60519","name":"FLOCK 4BE 28","type":"PAYLOAD","l1":"1 60519U 24149BD  26202.18604498  .00035158  00000-0  70476-3 0  9992","l2":"2 60519  97.3733 288.5113 0005453 158.1906 201.9577 15.46624830107693"},{"id":"60559","name":"FLOCK 4BE 5","type":"PAYLOAD","l1":"1 60559U 24149CV  26202.18867783  .00012923  00000-0  31353-3 0  9990","l2":"2 60559  97.3832 286.5364 0004481 154.4879 205.6589 15.41163930107510"}]}